STARLINK-32959          
1 63569U 25076A   25127.91668981 -.01495791  00000+0 -34542-1 0  9990
2 63569  42.9993 255.6182 0001636 285.3045 141.1245 15.44747117  4811
STARLINK-32956          
1 63570U 25076B   25128.25002315 -.01495601  00000+0 -34697-1 0  9994
2 63570  42.9994 253.6647 0001432 268.0099 222.4535 15.44614533  4965
STARLINK-33722          
1 63571U 25076C   25128.25002315 -.01451800  00000+0 -19908-1 0  9996
2 63571  42.9996 251.6387 0001320 257.5641 327.3227 15.59479866  5035
STARLINK-33739          
1 63572U 25076D   25128.25002315 -.01451907  00000+0 -19909-1 0  9996
2 63572  42.9995 251.6346 0001361 255.1383 331.6658 15.59480331  4980
STARLINK-33683          
1 63573U 25076E   25128.25002315 -.01451292  00000+0 -19900-1 0  9995
2 63573  42.9995 251.6239 0001393 261.0553 329.5829 15.59479505  4923
STARLINK-33724          
1 63574U 25076F   25127.55609112  .00148220  00000+0  10030-2 0  9993
2 63574  42.9980 255.5612 0002628 288.6352  71.4231 15.73812075  4952
STARLINK-33732          
1 63575U 25076G   25128.25002315 -.01451073  00000+0 -19897-1 0  9999
2 63575  42.9997 251.6294 0001368 260.3281 328.3940 15.59479266  4824
STARLINK-33800          
1 63576U 25076H   25128.25002315 -.01450795  00000+0 -19893-1 0  9996
2 63576  42.9997 251.6191 0001358 260.3815 332.1749 15.59479042  5039
